STARLINK-30409
1 57820U 23138N   26061.16668981  .00998588  00000+0  42840-1 0  9994
2 57820  42.9997 276.0701 0001620 282.5686 107.9743 15.19590933  5824
